ONEWEB-0055             
1 45443U 20020V   22008.48268810 -.00000406  00000+0 -11819-2 0  9996
2 45443  87.8908 343.2773 0001527  79.3343 280.7957 13.11414882 90195
ONEWEB-0093             
1 45444U 20020W   22008.45803284  .00000592  00000+0  16331-2 0  9992
2 45444  87.8897 343.3195 0001515  77.3121 282.8176 13.11416124 90255
ONEWEB-0029             
1 45445U 20020X   22008.48045640 -.00000342  00000+0 -99949-3 0  9992
2 45445  87.8900 343.2974 0001897  70.8737 289.2596 13.11414926 90232
ONEWEB-0068             
1 45446U 20020Y   22008.45017605  .00000662  00000+0  18308-2 0  9992
2 45446  87.8898 343.3189 0001404  71.7537 288.3743 13.11417735 90178
ONEWEB-0046             
1 45447U 20020Z   22008.44679167  .00000549  00000+0  15145-2 0  9999
2 45447  87.8900 343.3269 0001886  82.3966 277.7376 13.11418628 90187
ONEWEB-0063             
1 45448U 20020AA  22008.47596506 -.00000124  00000+0 -38447-3 0  9990
2 45448  87.8892 343.3160 0002058  85.5130 274.6233 13.11415700 90274
ONEWEB-0019             
1 45449U 20020AB  22008.45127652  .00000592  00000+0  16340-2 0  9995
2 45449  87.8902 343.3051 0001774  86.8107 273.3223 13.11423165 90110
ONEWEB-0094             
1 45450U 20020AC  22008.38471971  .00000026  00000+0  33931-4 0  9994
2 45450  87.9102 328.0702 0001583  83.0921 277.0390 13.17645763 92865
ONEWEB-0087             
1 45451U 20020AD  22008.48492646 -.00000552  00000+0 -15938-2 0  9999
2 45451  87.8906 343.3309 0001789  66.9636 293.1680 13.11415808 90162
ONEWEB-0082             
1 45452U 20020AE  22008.48717586 -.00000378  00000+0 -11028-2 0  9995
2 45452  87.8898 343.2766 0001401  63.8611 296.2661 13.11416710 90255
ONEWEB-0050             
1 45453U 20020AF  22008.49431654  .00000925  00000+0  81817-4 0  9997
2 45453  87.5429 291.2020 0028679  74.0778 286.3609 14.94780435 98375
ONEWEB-0034             
1 45454U 20020AG  22008.42884420 -.00000026  00000+0 -10845-3 0  9990
2 45454  87.8898 343.3111 0001787  74.4664 285.6661 13.11419571 90165
ONEWEB-0060             
1 45455U 20020AH  22008.43783277  .00000299  00000+0  80655-3 0  9996
2 45455  87.8902 343.3130 0001826  81.3140 278.8195 13.11418855 90129
ONEWEB-0086             
1 45456U 20020AJ  22008.45578851  .00000559  00000+0  15425-2 0  9990
2 45456  87.8899 343.3042 0001615  74.5809 285.5497 13.11416727 90181
ONEWEB-0088             
1 45457U 20020AK  22008.43109559 -.00000050  00000+0 -17720-3 0  9993
2 45457  87.8896 343.3291 0001916  77.2484 282.8858 13.11419131 90114
ONEWEB-0102             
1 47258U 20100A   22008.56074702 -.00000655  00000+0 -18564-2 0  9995
2 47258  87.8883 312.8381 0001460  74.6567 285.4722 13.12442177 52157
ONEWEB-0109             
1 47259U 20100B   22008.57229541 -.00000402  00000+0 -11527-2 0  9992
2 47259  87.8998 312.7414 0001555  82.2084 277.9222 13.12443973 51981
ONEWEB-0110             
1 47260U 20100C   22008.36670053  .00000494  00000+0  13385-2 0  9992
2 47260  87.8905 312.8281 0001288  77.3189 282.8083 13.12444045 52126
ONEWEB-0111             
1 47261U 20100D   22008.39672224 -.00000254  00000+0 -74133-3 0  9993
2 47261  87.8907 312.8506 0001490  75.5653 284.5641 13.12443158 51964
ONEWEB-0114             
1 47262U 20100E   22008.58154891  .00000089  00000+0  21132-3 0  9995
2 47262  87.8968 312.6991 0001555  95.9961 264.1345 13.12444804 51940
ONEWEB-0117             
1 47263U 20100F   22008.57462781 -.00000135  00000+0 -40950-3 0  9998
2 47263  87.8992 312.7487 0001479  78.9700 281.1595 13.12444545 51955
ONEWEB-0118             
1 47264U 20100G   22008.52839150  .00034902  00000+0  96665-1 0  9991
2 47264  87.8974 312.7972 0004551  82.8800 277.2846 13.12404894 52144
ONEWEB-0119             
1 47265U 20100H   22008.55612660 -.00000653  00000+0 -18505-2 0  9996
2 47265  87.8882 312.8453 0001509  78.7995 281.3303 13.12441845 52126
ONEWEB-0120             
1 47266U 20100J   22008.58617625  .00000228  00000+0  59905-3 0  9992
2 47266  87.8955 312.8135 0001498  87.7444 272.3856 13.12442013 52155
ONEWEB-0121             
1 47267U 20100K   22008.57000293 -.00000297  00000+0 -86101-3 0  9995
2 47267  87.8962 312.8776 0001573  71.5583 288.5717 13.12442483 52060
ONEWEB-0122             
1 47268U 20100L   22008.56307106 -.00000392  00000+0 -11252-2 0  9998
2 47268  87.8965 312.7509 0001544  79.6408 280.4895 13.12442215 51970
ONEWEB-0123             
1 47269U 20100M   22008.55844383 -.00000443  00000+0 -12664-2 0  9996
2 47269  87.8897 312.8248 0001666  81.4553 278.6764 13.12443255 52119
ONEWEB-0124             
1 47270U 20100N   22008.54460616  .00000031  00000+0  51566-4 0  9997
2 47270  87.8866 312.7415 0001741  63.2206 296.9101 13.12442169 51995
ONEWEB-0125             
1 47271U 20100P   22008.52378818  .00000470  00000+0  12723-2 0  9995
2 47271  87.8940 312.8733 0001591  91.6726 268.4585 13.12444275 52056
ONEWEB-0126             
1 47272U 20100Q   22008.54804845 -.00000152  00000+0 -45792-3 0  9994
2 47272  87.8896 312.8732 0001419  84.5747 275.5543 13.12441572 52127
ONEWEB-0127             
1 47273U 20100R   22008.35977059  .00000439  00000+0  11838-2 0  9991
2 47273  87.8874 312.7930 0001693  80.9272 279.2048 13.12444249 52125
ONEWEB-0128             
1 47274U 20100S   22008.53303756  .00000282  00000+0  74816-3 0  9991
2 47274  87.8895 312.7853 0001315  66.6200 293.5066 13.12442067 52165
ONEWEB-0129             
1 47275U 20100T   22008.36207243  .00000457  00000+0  12350-2 0  9995
2 47275  87.8992 312.7802 0002051 134.3570 225.7726 13.12444935 52075
ONEWEB-0130             
1 47276U 20100U   22008.53997302  .00000078  00000+0  18154-3 0  9995
2 47276  87.8928 312.8228 0001550  71.9260 288.2037 13.12442761 52066
ONEWEB-0131             
1 47277U 20100V   22008.53765871  .00000161  00000+0  41121-3 0  9993
2 47277  87.8928 312.7709 0001663  70.7853 289.3455 13.12442771 52102
ONEWEB-0132             
1 47278U 20100W   22008.56767518 -.00000511  00000+0 -14559-2 0  9992
2 47278  87.8890 312.8513 0001566  89.1856 270.9452 13.12443354 52004
ONEWEB-0133             
1 47279U 20100X   22008.58387275  .00000183  00000+0  47295-3 0  9990
2 47279  87.8914 312.7561 0001599  80.9222 279.2088 13.12443209 52169
ONEWEB-0134             
1 47280U 20100Y   22008.55150611 -.00000496  00000+0 -14139-2 0  9990
2 47280  87.8883 312.7718 0001382  70.9831 289.1447 13.12441599 52131
ONEWEB-0135             
1 47281U 20100Z   22008.36901905  .00000466  00000+0  12612-2 0  9999
2 47281  87.8887 312.7997 0001494  82.9121 277.2177 13.12443870 52136
ONEWEB-0136             
1 47282U 20100AA  22008.54227406  .00000001  00000+0 -32315-4 0  9997
2 47282  87.8978 312.7574 0000697  84.3360 275.7848 13.12442908 52087
ONEWEB-0137             
1 47283U 20100AB  22008.57925572  .00000000  00000+0 -34439-4 0  9998
2 47283  87.8871 312.8172 0001721  89.5689 270.5637 13.12443815 51991
ONEWEB-0138             
1 47284U 20100AC  22008.32510299 -.00000377  00000+0 -10847-2 0  9991
2 47284  87.8875 312.8592 0001383  84.0740 276.0546 13.12443846 52045
ONEWEB-0139             
1 47285U 20100AD  22008.52611009  .00000441  00000+0  11897-2 0  9991
2 47285  87.8927 312.8880 0001282  77.2592 282.8680 13.12441962 52143
ONEWEB-0140             
1 47286U 20100AE  22008.54687671 -.00000147  00000+0 -44333-3 0  9999
2 47286  87.8904 312.8302 0001373  78.3493 281.7790 13.12438743 52111
ONEWEB-0141             
1 47287U 20100AF  22008.53882138  .00000088  00000+0  21061-3 0  9999
2 47287  87.8879 312.8110 0001534  78.0775 282.0525 13.12442037 52097
ONEWEB-0142             
1 47288U 20100AG  22008.55959762 -.00000270  00000+0 -78494-3 0  9997
2 47288  87.8895 312.9015 0001538  92.5988 267.5316 13.12442621 52097
ONEWEB-0143             
1 47289U 20100AH  22008.36439936  .00000507  00000+0  13730-2 0  9995
2 47289  87.8926 312.8318 0001590  77.9630 282.1677 13.12444569 52048
ONEWEB-0144             
1 47290U 20100AJ  22008.56538381 -.00000365  00000+0 -10498-2 0  9995
2 47290  87.8970 312.7303 0001439  73.8335 286.2952 13.12444161 51993
ONEWEB-0145             
1 47291U 20100AK  22008.53534202  .00000186  00000+0  48248-3 0  9995
2 47291  87.8901 312.8100 0001600  82.6642 277.4668 13.12442571 52184
ONEWEB-0146             
1 47292U 20100AL  22008.53073462  .00000343  00000+0  91869-3 0  9994
2 47292  87.8888 312.8315 0002362  56.5796 303.5558 13.12442887 52092
ONEWEB-0147             
1 47293U 20100AM  22008.57691080 -.00000427  00000+0 -12222-2 0  9991
2 47293  87.8905 312.8255 0000902  96.9099 263.2132 13.12444992 51995
ONEWEB-0115             
1 48042U 21025A   22008.26906949  .00000208  00000+0  53368-3 0  9992
2 48042  87.8914 282.2339 0001491  60.7580 299.3698 13.13472210 40810
ONEWEB-0152             
1 48043U 21025B   22008.50881261  .00000319  00000+0  83982-3 0  9997
2 48043  87.8964 282.1896 0001317  70.3310 289.7962 13.13468679 40808
ONEWEB-0153             
1 48044U 21025C   22008.48640396 -.00000110  00000+0 -33721-3 0  9994
2 48044  87.8898 282.3620 0001639  79.7664 280.3650 13.13470927 40792
ONEWEB-0154             
1 48045U 21025D   22008.48415695 -.00000213  00000+0 -61785-3 0  9992
2 48045  87.8992 282.2218 0001411  93.2687 266.8603 13.13475499 40756
ONEWEB-0116             
1 48046U 21025E   22008.45056399  .00000230  00000+0  59524-3 0  9997
2 48046  87.8989 282.2214 0001844  65.3135 294.8186 13.13469197 40897
ONEWEB-0150             
1 48047U 21025F   22008.49984856  .00000177  00000+0  44984-3 0  9994
2 48047  87.8870 282.1818 0001635  87.9798 272.1519 13.13471802 40793
ONEWEB-0107             
1 48048U 21025G   22008.27356847  .00000311  00000+0  81684-3 0  9992
2 48048  87.8898 282.2228 0001486  98.0485 262.0813 13.13470845 40746
ONEWEB-0101             
1 48049U 21025H   22008.46624482 -.00000192  00000+0 -55952-3 0  9995
2 48049  87.8893 282.2424 0001265  80.6952 279.4320 13.13468907 40742
